{
  "type": "FeatureCollection",
  "features": [
    {
      "type": "Feature",
      "properties": {
        "glider_id": "INCOIS_GLIDER_001",
        "mission_id": "M2026_01",
        "name": "Indian Ocean Survey 1",
        "status": "active",
        "variables": ["temperature", "salinity", "chlorophyll"],
        "start_time": "2026-08-01T00:00:00Z",
        "end_time": "2026-08-31T23:59:59Z"
      },
      "geometry": {
        "type": "LineString",
        "coordinates": [
          [58.5, -8.0],
          [60.2, -7.5],
          [62.1, -7.0],
          [64.5, -6.5],
          [66.8, -6.0],
          [69.0, -5.5],
          [71.2, -5.0],
          [73.5, -4.5],
          [75.8, -4.0],
          [78.1, -3.5],
          [80.5, -3.0],
          [82.8, -2.5],
          [85.0, -2.0],
          [87.2, -1.5],
          [89.5, -1.0],
          [91.8, -0.5],
          [94.0, 0.5]
        ]
      }
    },
    {
      "type": "Feature",
      "properties": {
        "glider_id": "INCOIS_GLIDER_002",
        "mission_id": "M2026_02",
        "name": "Arabian Sea Survey",
        "status": "active",
        "variables": ["temperature", "salinity"],
        "start_time": "2026-07-15T00:00:00Z",
        "end_time": "2026-08-15T23:59:59Z"
      },
      "geometry": {
        "type": "LineString",
        "coordinates": [
          [55.0, 12.0],
          [56.5, 13.5],
          [58.2, 15.0],
          [60.1, 16.5],
          [62.5, 18.0],
          [65.2, 20.0],
          [68.0, 22.0],
          [70.5, 23.5],
          [73.0, 25.0]
        ]
      }
    },
    {
      "type": "Feature",
      "properties": {
        "glider_id": "INCOIS_GLIDER_003",
        "mission_id": "M2026_03",
        "name": "Bay of Bengal Glider",
        "status": "inactive",
        "variables": ["temperature", "salinity", "chlorophyll"],
        "start_time": "2026-06-01T00:00:00Z",
        "end_time": "2026-07-15T23:59:59Z"
      },
      "geometry": {
        "type": "LineString",
        "coordinates": [
          [82.0, 6.0],
          [83.5, 7.5],
          [85.2, 9.0],
          [87.1, 10.5],
          [89.2, 12.0],
          [91.5, 14.0],
          [93.8, 16.0],
          [95.0, 18.0]
        ]
      }
    }
  ]
}